<?xml version="1.0" encoding="UTF-8"?>
<ndm xmlns:xsi="http://www.w3.org/2001/XMLSchema-instance" xsi:noNamespaceSchemaLocation="https://sanaregistry.org/r/ndmxml_unqualified/ndmxml-2.0.0-master-2.0.xsd">
<omm id="CCSDS_OMM_VERS" version="2.0">
<header><CREATION_DATE/><ORIGINATOR/></header><body><segment><metadata><OBJECT_NAME>KUIPER-00069</OBJECT_NAME><OBJECT_ID>2025-151A</OBJECT_ID><CENTER_NAME>EARTH</CENTER_NAME><REF_FRAME>TEME</REF_FRAME><TIME_SYSTEM>UTC</TIME_SYSTEM><MEAN_ELEMENT_THEORY>SGP4</MEAN_ELEMENT_THEORY></metadata><data><meanElements><EPOCH>2025-11-05T06:00:00.999648</EPOCH><MEAN_MOTION>14.99596910</MEAN_MOTION><ECCENTRICITY>.00068121</ECCENTRICITY><INCLINATION>51.8898</INCLINATION><RA_OF_ASC_NODE>111.7152</RA_OF_ASC_NODE><ARG_OF_PERICENTER>220.0469</ARG_OF_PERICENTER><MEAN_ANOMALY>83.7283</MEAN_ANOMALY></meanElements><tleParameters><EPHEMERIS_TYPE>0</EPHEMERIS_TYPE><CLASSIFICATION_TYPE>U</CLASSIFICATION_TYPE><NORAD_CAT_ID>64816</NORAD_CAT_ID><ELEMENT_SET_NO>999</ELEMENT_SET_NO><REV_AT_EPOCH>459</REV_AT_EPOCH><BSTAR>-.6468186E-1</BSTAR><MEAN_MOTION_DOT>-.754713E-2</MEAN_MOTION_DOT><MEAN_MOTION_DDOT>0</MEAN_MOTION_DDOT></tleParameters></data></segment></body></omm>
<omm id="CCSDS_OMM_VERS" version="2.0">
<header><CREATION_DATE/><ORIGINATOR/></header><body><segment><metadata><OBJECT_NAME>KUIPER-00070</OBJECT_NAME><OBJECT_ID>2025-151B</OBJECT_ID><CENTER_NAME>EARTH</CENTER_NAME><REF_FRAME>TEME</REF_FRAME><TIME_SYSTEM>UTC</TIME_SYSTEM><MEAN_ELEMENT_THEORY>SGP4</MEAN_ELEMENT_THEORY></metadata><data><meanElements><EPOCH>2025-11-04T22:12:53.182656</EPOCH><MEAN_MOTION>14.79903150</MEAN_MOTION><ECCENTRICITY>.00101714</ECCENTRICITY><INCLINATION>51.9035</INCLINATION><RA_OF_ASC_NODE>137.2730</RA_OF_ASC_NODE><ARG_OF_PERICENTER>203.1958</ARG_OF_PERICENTER><MEAN_ANOMALY>156.8547</MEAN_ANOMALY></meanElements><tleParameters><EPHEMERIS_TYPE>0</EPHEMERIS_TYPE><CLASSIFICATION_TYPE>U</CLASSIFICATION_TYPE><NORAD_CAT_ID>64817</NORAD_CAT_ID><ELEMENT_SET_NO>999</ELEMENT_SET_NO><REV_AT_EPOCH>1794</REV_AT_EPOCH><BSTAR>-.3037178E-2</BSTAR><MEAN_MOTION_DOT>-.23302E-3</MEAN_MOTION_DOT><MEAN_MOTION_DDOT>0</MEAN_MOTION_DDOT></tleParameters></data></segment></body></omm>
<omm id="CCSDS_OMM_VERS" version="2.0">
<header><CREATION_DATE/><ORIGINATOR/></header><body><segment><metadata><OBJECT_NAME>KUIPER-00071</OBJECT_NAME><OBJECT_ID>2025-151C</OBJECT_ID><CENTER_NAME>EARTH</CENTER_NAME><REF_FRAME>TEME</REF_FRAME><TIME_SYSTEM>UTC</TIME_SYSTEM><MEAN_ELEMENT_THEORY>SGP4</MEAN_ELEMENT_THEORY></metadata><data><meanElements><EPOCH>2025-11-04T12:33:35.884800</EPOCH><MEAN_MOTION>14.79970082</MEAN_MOTION><ECCENTRICITY>.0007898</ECCENTRICITY><INCLINATION>51.9066</INCLINATION><RA_OF_ASC_NODE>136.5594</RA_OF_ASC_NODE><ARG_OF_PERICENTER>172.5641</ARG_OF_PERICENTER><MEAN_ANOMALY>187.5440</MEAN_ANOMALY></meanElements><tleParameters><EPHEMERIS_TYPE>0</EPHEMERIS_TYPE><CLASSIFICATION_TYPE>U</CLASSIFICATION_TYPE><NORAD_CAT_ID>64818</NORAD_CAT_ID><ELEMENT_SET_NO>999</ELEMENT_SET_NO><REV_AT_EPOCH>1673</REV_AT_EPOCH><BSTAR>.21317E-2</BSTAR><MEAN_MOTION_DOT>.16089E-3</MEAN_MOTION_DOT><MEAN_MOTION_DDOT>0</MEAN_MOTION_DDOT></tleParameters></data></segment></body></omm>
<omm id="CCSDS_OMM_VERS" version="2.0">
<header><CREATION_DATE/><ORIGINATOR/></header><body><segment><metadata><OBJECT_NAME>KUIPER-00072</OBJECT_NAME><OBJECT_ID>2025-151D</OBJECT_ID><CENTER_NAME>EARTH</CENTER_NAME><REF_FRAME>TEME</REF_FRAME><TIME_SYSTEM>UTC</TIME_SYSTEM><MEAN_ELEMENT_THEORY>SGP4</MEAN_ELEMENT_THEORY></metadata><data><meanElements><EPOCH>2025-11-05T06:00:00.999648</EPOCH><MEAN_MOTION>14.89121247</MEAN_MOTION><ECCENTRICITY>.00045609</ECCENTRICITY><INCLINATION>51.8962</INCLINATION><RA_OF_ASC_NODE>113.6045</RA_OF_ASC_NODE><ARG_OF_PERICENTER>161.6401</ARG_OF_PERICENTER><MEAN_ANOMALY>43.9301</MEAN_ANOMALY></meanElements><tleParameters><EPHEMERIS_TYPE>0</EPHEMERIS_TYPE><CLASSIFICATION_TYPE>U</CLASSIFICATION_TYPE><NORAD_CAT_ID>64819</NORAD_CAT_ID><ELEMENT_SET_NO>999</ELEMENT_SET_NO><REV_AT_EPOCH>572</REV_AT_EPOCH><BSTAR>.93083048E-3</BSTAR><MEAN_MOTION_DOT>.8643E-4</MEAN_MOTION_DOT><MEAN_MOTION_DDOT>0</MEAN_MOTION_DDOT></tleParameters></data></segment></body></omm>
<omm id="CCSDS_OMM_VERS" version="2.0">
<header><CREATION_DATE/><ORIGINATOR/></header><body><segment><metadata><OBJECT_NAME>KUIPER-00073</OBJECT_NAME><OBJECT_ID>2025-151E</OBJECT_ID><CENTER_NAME>EARTH</CENTER_NAME><REF_FRAME>TEME</REF_FRAME><TIME_SYSTEM>UTC</TIME_SYSTEM><MEAN_ELEMENT_THEORY>SGP4</MEAN_ELEMENT_THEORY></metadata><data><meanElements><EPOCH>2025-11-05T05:33:46.654272</EPOCH><MEAN_MOTION>14.80030875</MEAN_MOTION><ECCENTRICITY>.00134813</ECCENTRICITY><INCLINATION>51.8984</INCLINATION><RA_OF_ASC_NODE>133.4185</RA_OF_ASC_NODE><ARG_OF_PERICENTER>196.6429</ARG_OF_PERICENTER><MEAN_ANOMALY>163.4093</MEAN_ANOMALY></meanElements><tleParameters><EPHEMERIS_TYPE>0</EPHEMERIS_TYPE><CLASSIFICATION_TYPE>U</CLASSIFICATION_TYPE><NORAD_CAT_ID>64820</NORAD_CAT_ID><ELEMENT_SET_NO>999</ELEMENT_SET_NO><REV_AT_EPOCH>1802</REV_AT_EPOCH><BSTAR>.47913571E-3</BSTAR><MEAN_MOTION_DOT>.3444E-4</MEAN_MOTION_DOT><MEAN_MOTION_DDOT>0</MEAN_MOTION_DDOT></tleParameters></data></segment></body></omm>
<omm id="CCSDS_OMM_VERS" version="2.0">
<header><CREATION_DATE/><ORIGINATOR/></header><body><segment><metadata><OBJECT_NAME>KUIPER-00074</OBJECT_NAME><OBJECT_ID>2025-151F</OBJECT_ID><CENTER_NAME>EARTH</CENTER_NAME><REF_FRAME>TEME</REF_FRAME><TIME_SYSTEM>UTC</TIME_SYSTEM><MEAN_ELEMENT_THEORY>SGP4</MEAN_ELEMENT_THEORY></metadata><data><meanElements><EPOCH>2025-11-04T18:33:10.625760</EPOCH><MEAN_MOTION>14.79955922</MEAN_MOTION><ECCENTRICITY>.00124429</ECCENTRICITY><INCLINATION>51.8991</INCLINATION><RA_OF_ASC_NODE>122.9623</RA_OF_ASC_NODE><ARG_OF_PERICENTER>210.4174</ARG_OF_PERICENTER><MEAN_ANOMALY>149.6068</MEAN_ANOMALY></meanElements><tleParameters><EPHEMERIS_TYPE>0</EPHEMERIS_TYPE><CLASSIFICATION_TYPE>U</CLASSIFICATION_TYPE><NORAD_CAT_ID>64821</NORAD_CAT_ID><ELEMENT_SET_NO>999</ELEMENT_SET_NO><REV_AT_EPOCH>1694</REV_AT_EPOCH><BSTAR>.4349317E-3</BSTAR><MEAN_MOTION_DOT>.3099E-4</MEAN_MOTION_DOT><MEAN_MOTION_DDOT>0</MEAN_MOTION_DDOT></tleParameters></data></segment></body></omm>
<omm id="CCSDS_OMM_VERS" version="2.0">
<header><CREATION_DATE/><ORIGINATOR/></header><body><segment><metadata><OBJECT_NAME>KUIPER-00075</OBJECT_NAME><OBJECT_ID>2025-151G</OBJECT_ID><CENTER_NAME>EARTH</CENTER_NAME><REF_FRAME>TEME</REF_FRAME><TIME_SYSTEM>UTC</TIME_SYSTEM><MEAN_ELEMENT_THEORY>SGP4</MEAN_ELEMENT_THEORY></metadata><data><meanElements><EPOCH>2025-11-04T17:52:30.162720</EPOCH><MEAN_MOTION>15.39818865</MEAN_MOTION><ECCENTRICITY>.00055077</ECCENTRICITY><INCLINATION>51.8741</INCLINATION><RA_OF_ASC_NODE>108.5658</RA_OF_ASC_NODE><ARG_OF_PERICENTER>178.1877</ARG_OF_PERICENTER><MEAN_ANOMALY>181.9132</MEAN_ANOMALY></meanElements><tleParameters><EPHEMERIS_TYPE>0</EPHEMERIS_TYPE><CLASSIFICATION_TYPE>U</CLASSIFICATION_TYPE><NORAD_CAT_ID>64822</NORAD_CAT_ID><ELEMENT_SET_NO>999</ELEMENT_SET_NO><REV_AT_EPOCH>1714</REV_AT_EPOCH><BSTAR>.1079546E-2</BSTAR><MEAN_MOTION_DOT>.4337E-3</MEAN_MOTION_DOT><MEAN_MOTION_DDOT>0</MEAN_MOTION_DDOT></tleParameters></data></segment></body></omm>
<omm id="CCSDS_OMM_VERS" version="2.0">
<header><CREATION_DATE/><ORIGINATOR/></header><body><segment><metadata><OBJECT_NAME>KUIPER-00076</OBJECT_NAME><OBJECT_ID>2025-151H</OBJECT_ID><CENTER_NAME>EARTH</CENTER_NAME><REF_FRAME>TEME</REF_FRAME><TIME_SYSTEM>UTC</TIME_SYSTEM><MEAN_ELEMENT_THEORY>SGP4</MEAN_ELEMENT_THEORY></metadata><data><meanElements><EPOCH>2025-11-04T18:29:26.065248</EPOCH><MEAN_MOTION>14.79934432</MEAN_MOTION><ECCENTRICITY>.00040313</ECCENTRICITY><INCLINATION>51.8985</INCLINATION><RA_OF_ASC_NODE>125.4732</RA_OF_ASC_NODE><ARG_OF_PERICENTER>203.9802</ARG_OF_PERICENTER><MEAN_ANOMALY>156.0973</MEAN_ANOMALY></meanElements><tleParameters><EPHEMERIS_TYPE>0</EPHEMERIS_TYPE><CLASSIFICATION_TYPE>U</CLASSIFICATION_TYPE><NORAD_CAT_ID>64823</NORAD_CAT_ID><ELEMENT_SET_NO>999</ELEMENT_SET_NO><REV_AT_EPOCH>1691</REV_AT_EPOCH><BSTAR>.50679235E-3</BSTAR><MEAN_MOTION_DOT>.3644E-4</MEAN_MOTION_DOT><MEAN_MOTION_DDOT>0</MEAN_MOTION_DDOT></tleParameters></data></segment></body></omm>
<omm id="CCSDS_OMM_VERS" version="2.0">
<header><CREATION_DATE/><ORIGINATOR/></header><body><segment><metadata><OBJECT_NAME>KUIPER-00077</OBJECT_NAME><OBJECT_ID>2025-151J</OBJECT_ID><CENTER_NAME>EARTH</CENTER_NAME><REF_FRAME>TEME</REF_FRAME><TIME_SYSTEM>UTC</TIME_SYSTEM><MEAN_ELEMENT_THEORY>SGP4</MEAN_ELEMENT_THEORY></metadata><data><meanElements><EPOCH>2025-11-04T13:30:01.725408</EPOCH><MEAN_MOTION>14.79933920</MEAN_MOTION><ECCENTRICITY>.0006472</ECCENTRICITY><INCLINATION>51.8994</INCLINATION><RA_OF_ASC_NODE>131.3939</RA_OF_ASC_NODE><ARG_OF_PERICENTER>156.6263</ARG_OF_PERICENTER><MEAN_ANOMALY>203.4995</MEAN_ANOMALY></meanElements><tleParameters><EPHEMERIS_TYPE>0</EPHEMERIS_TYPE><CLASSIFICATION_TYPE>U</CLASSIFICATION_TYPE><NORAD_CAT_ID>64824</NORAD_CAT_ID><ELEMENT_SET_NO>999</ELEMENT_SET_NO><REV_AT_EPOCH>1681</REV_AT_EPOCH><BSTAR>.35755E-3</BSTAR><MEAN_MOTION_DOT>.2505E-4</MEAN_MOTION_DOT><MEAN_MOTION_DDOT>0</MEAN_MOTION_DDOT></tleParameters></data></segment></body></omm>

</ndm>
